<?xml version="1.0" encoding="UTF-8"?>
<ndm xmlns:xsi="http://www.w3.org/2001/XMLSchema-instance" xsi:noNamespaceSchemaLocation="https://sanaregistry.org/r/ndmxml_unqualified/ndmxml-2.0.0-master-2.0.xsd">
<omm id="CCSDS_OMM_VERS" version="2.0">
<header><CREATION_DATE/><ORIGINATOR/></header><body><segment><metadata><OBJECT_NAME>KUIPER-00044</OBJECT_NAME><OBJECT_ID>2025-134F</OBJECT_ID><CENTER_NAME>EARTH</CENTER_NAME><REF_FRAME>TEME</REF_FRAME><TIME_SYSTEM>UTC</TIME_SYSTEM><MEAN_ELEMENT_THEORY>SGP4</MEAN_ELEMENT_THEORY></metadata><data><meanElements><EPOCH>2025-11-13T12:44:51.091296</EPOCH><MEAN_MOTION>14.80018899</MEAN_MOTION><ECCENTRICITY>.00115641</ECCENTRICITY><INCLINATION>51.9013</INCLINATION><RA_OF_ASC_NODE>40.2430</RA_OF_ASC_NODE><ARG_OF_PERICENTER>248.4774</ARG_OF_PERICENTER><MEAN_ANOMALY>111.4956</MEAN_ANOMALY></meanElements><tleParameters><EPHEMERIS_TYPE>0</EPHEMERIS_TYPE><CLASSIFICATION_TYPE>U</CLASSIFICATION_TYPE><NORAD_CAT_ID>64505</NORAD_CAT_ID><ELEMENT_SET_NO>999</ELEMENT_SET_NO><REV_AT_EPOCH>2268</REV_AT_EPOCH><BSTAR>.134489E-2</BSTAR><MEAN_MOTION_DOT>.10076E-3</MEAN_MOTION_DOT><MEAN_MOTION_DDOT>0</MEAN_MOTION_DDOT></tleParameters></data></segment></body></omm>
<omm id="CCSDS_OMM_VERS" version="2.0">
<header><CREATION_DATE/><ORIGINATOR/></header><body><segment><metadata><OBJECT_NAME>KUIPER-00046</OBJECT_NAME><OBJECT_ID>2025-134G</OBJECT_ID><CENTER_NAME>EARTH</CENTER_NAME><REF_FRAME>TEME</REF_FRAME><TIME_SYSTEM>UTC</TIME_SYSTEM><MEAN_ELEMENT_THEORY>SGP4</MEAN_ELEMENT_THEORY></metadata><data><meanElements><EPOCH>2025-11-13T14:27:55.669824</EPOCH><MEAN_MOTION>14.80115197</MEAN_MOTION><ECCENTRICITY>.0011811</ECCENTRICITY><INCLINATION>51.9001</INCLINATION><RA_OF_ASC_NODE>36.3948</RA_OF_ASC_NODE><ARG_OF_PERICENTER>257.7250</ARG_OF_PERICENTER><MEAN_ANOMALY>102.2390</MEAN_ANOMALY></meanElements><tleParameters><EPHEMERIS_TYPE>0</EPHEMERIS_TYPE><CLASSIFICATION_TYPE>U</CLASSIFICATION_TYPE><NORAD_CAT_ID>64506</NORAD_CAT_ID><ELEMENT_SET_NO>999</ELEMENT_SET_NO><REV_AT_EPOCH>2274</REV_AT_EPOCH><BSTAR>.21688812E-2</BSTAR><MEAN_MOTION_DOT>.16441E-3</MEAN_MOTION_DOT><MEAN_MOTION_DDOT>0</MEAN_MOTION_DDOT></tleParameters></data></segment></body></omm>
<omm id="CCSDS_OMM_VERS" version="2.0">
<header><CREATION_DATE/><ORIGINATOR/></header><body><segment><metadata><OBJECT_NAME>KUIPER-00047</OBJECT_NAME><OBJECT_ID>2025-134H</OBJECT_ID><CENTER_NAME>EARTH</CENTER_NAME><REF_FRAME>TEME</REF_FRAME><TIME_SYSTEM>UTC</TIME_SYSTEM><MEAN_ELEMENT_THEORY>SGP4</MEAN_ELEMENT_THEORY></metadata><data><meanElements><EPOCH>2025-11-13T16:00:01.999584</EPOCH><MEAN_MOTION>14.82668515</MEAN_MOTION><ECCENTRICITY>.0007698</ECCENTRICITY><INCLINATION>51.8991</INCLINATION><RA_OF_ASC_NODE>8.2960</RA_OF_ASC_NODE><ARG_OF_PERICENTER>268.0819</ARG_OF_PERICENTER><MEAN_ANOMALY>265.7142</MEAN_ANOMALY></meanElements><tleParameters><EPHEMERIS_TYPE>0</EPHEMERIS_TYPE><CLASSIFICATION_TYPE>U</CLASSIFICATION_TYPE><NORAD_CAT_ID>64507</NORAD_CAT_ID><ELEMENT_SET_NO>999</ELEMENT_SET_NO><REV_AT_EPOCH>567</REV_AT_EPOCH><BSTAR>.32405491E-2</BSTAR><MEAN_MOTION_DOT>.26263E-3</MEAN_MOTION_DOT><MEAN_MOTION_DDOT>0</MEAN_MOTION_DDOT></tleParameters></data></segment></body></omm>
<omm id="CCSDS_OMM_VERS" version="2.0">
<header><CREATION_DATE/><ORIGINATOR/></header><body><segment><metadata><OBJECT_NAME>KUIPER-00048</OBJECT_NAME><OBJECT_ID>2025-134J</OBJECT_ID><CENTER_NAME>EARTH</CENTER_NAME><REF_FRAME>TEME</REF_FRAME><TIME_SYSTEM>UTC</TIME_SYSTEM><MEAN_ELEMENT_THEORY>SGP4</MEAN_ELEMENT_THEORY></metadata><data><meanElements><EPOCH>2025-11-13T13:23:50.284032</EPOCH><MEAN_MOTION>14.80720245</MEAN_MOTION><ECCENTRICITY>.00020774</ECCENTRICITY><INCLINATION>51.8991</INCLINATION><RA_OF_ASC_NODE>9.0344</RA_OF_ASC_NODE><ARG_OF_PERICENTER>29.5003</ARG_OF_PERICENTER><MEAN_ANOMALY>330.6077</MEAN_ANOMALY></meanElements><tleParameters><EPHEMERIS_TYPE>0</EPHEMERIS_TYPE><CLASSIFICATION_TYPE>U</CLASSIFICATION_TYPE><NORAD_CAT_ID>64508</NORAD_CAT_ID><ELEMENT_SET_NO>999</ELEMENT_SET_NO><REV_AT_EPOCH>2312</REV_AT_EPOCH><BSTAR>-.64792399E-1</BSTAR><MEAN_MOTION_DOT>-.474573E-2</MEAN_MOTION_DOT><MEAN_MOTION_DDOT>0</MEAN_MOTION_DDOT></tleParameters></data></segment></body></omm>
<omm id="CCSDS_OMM_VERS" version="2.0">
<header><CREATION_DATE/><ORIGINATOR/></header><body><segment><metadata><OBJECT_NAME>KUIPER-00049</OBJECT_NAME><OBJECT_ID>2025-134K</OBJECT_ID><CENTER_NAME>EARTH</CENTER_NAME><REF_FRAME>TEME</REF_FRAME><TIME_SYSTEM>UTC</TIME_SYSTEM><MEAN_ELEMENT_THEORY>SGP4</MEAN_ELEMENT_THEORY></metadata><data><meanElements><EPOCH>2025-11-13T14:48:57.110688</EPOCH><MEAN_MOTION>14.80051880</MEAN_MOTION><ECCENTRICITY>.00027212</ECCENTRICITY><INCLINATION>51.9014</INCLINATION><RA_OF_ASC_NODE>22.3191</RA_OF_ASC_NODE><ARG_OF_PERICENTER>255.0377</ARG_OF_PERICENTER><MEAN_ANOMALY>105.0284</MEAN_ANOMALY></meanElements><tleParameters><EPHEMERIS_TYPE>0</EPHEMERIS_TYPE><CLASSIFICATION_TYPE>U</CLASSIFICATION_TYPE><NORAD_CAT_ID>64509</NORAD_CAT_ID><ELEMENT_SET_NO>999</ELEMENT_SET_NO><REV_AT_EPOCH>2294</REV_AT_EPOCH><BSTAR>.13160356E-2</BSTAR><MEAN_MOTION_DOT>.9854E-4</MEAN_MOTION_DOT><MEAN_MOTION_DDOT>0</MEAN_MOTION_DDOT></tleParameters></data></segment></body></omm>
<omm id="CCSDS_OMM_VERS" version="2.0">
<header><CREATION_DATE/><ORIGINATOR/></header><body><segment><metadata><OBJECT_NAME>KUIPER-00050</OBJECT_NAME><OBJECT_ID>2025-134L</OBJECT_ID><CENTER_NAME>EARTH</CENTER_NAME><REF_FRAME>TEME</REF_FRAME><TIME_SYSTEM>UTC</TIME_SYSTEM><MEAN_ELEMENT_THEORY>SGP4</MEAN_ELEMENT_THEORY></metadata><data><meanElements><EPOCH>2025-11-13T09:24:32.441760</EPOCH><MEAN_MOTION>14.96167217</MEAN_MOTION><ECCENTRICITY>.00047291</ECCENTRICITY><INCLINATION>51.8922</INCLINATION><RA_OF_ASC_NODE>20.2090</RA_OF_ASC_NODE><ARG_OF_PERICENTER>294.0668</ARG_OF_PERICENTER><MEAN_ANOMALY>65.9806</MEAN_ANOMALY></meanElements><tleParameters><EPHEMERIS_TYPE>0</EPHEMERIS_TYPE><CLASSIFICATION_TYPE>U</CLASSIFICATION_TYPE><NORAD_CAT_ID>64510</NORAD_CAT_ID><ELEMENT_SET_NO>999</ELEMENT_SET_NO><REV_AT_EPOCH>2295</REV_AT_EPOCH><BSTAR>.14317025E-2</BSTAR><MEAN_MOTION_DOT>.16084E-3</MEAN_MOTION_DOT><MEAN_MOTION_DDOT>0</MEAN_MOTION_DDOT></tleParameters></data></segment></body></omm>
<omm id="CCSDS_OMM_VERS" version="2.0">
<header><CREATION_DATE/><ORIGINATOR/></header><body><segment><metadata><OBJECT_NAME>KUIPER-00051</OBJECT_NAME><OBJECT_ID>2025-134M</OBJECT_ID><CENTER_NAME>EARTH</CENTER_NAME><REF_FRAME>TEME</REF_FRAME><TIME_SYSTEM>UTC</TIME_SYSTEM><MEAN_ELEMENT_THEORY>SGP4</MEAN_ELEMENT_THEORY></metadata><data><meanElements><EPOCH>2025-11-13T13:16:10.224768</EPOCH><MEAN_MOTION>14.79931377</MEAN_MOTION><ECCENTRICITY>.00018525</ECCENTRICITY><INCLINATION>51.9036</INCLINATION><RA_OF_ASC_NODE>20.1716</RA_OF_ASC_NODE><ARG_OF_PERICENTER>268.5133</ARG_OF_PERICENTER><MEAN_ANOMALY>91.5617</MEAN_ANOMALY></meanElements><tleParameters><EPHEMERIS_TYPE>0</EPHEMERIS_TYPE><CLASSIFICATION_TYPE>U</CLASSIFICATION_TYPE><NORAD_CAT_ID>64511</NORAD_CAT_ID><ELEMENT_SET_NO>999</ELEMENT_SET_NO><REV_AT_EPOCH>2296</REV_AT_EPOCH><BSTAR>.15399674E-2</BSTAR><MEAN_MOTION_DOT>.11538E-3</MEAN_MOTION_DOT><MEAN_MOTION_DDOT>0</MEAN_MOTION_DDOT></tleParameters></data></segment></body></omm>
<omm id="CCSDS_OMM_VERS" version="2.0">
<header><CREATION_DATE/><ORIGINATOR/></header><body><segment><metadata><OBJECT_NAME>KUIPER-00052</OBJECT_NAME><OBJECT_ID>2025-134N</OBJECT_ID><CENTER_NAME>EARTH</CENTER_NAME><REF_FRAME>TEME</REF_FRAME><TIME_SYSTEM>UTC</TIME_SYSTEM><MEAN_ELEMENT_THEORY>SGP4</MEAN_ELEMENT_THEORY></metadata><data><meanElements><EPOCH>2025-11-13T16:00:01.999584</EPOCH><MEAN_MOTION>15.66061352</MEAN_MOTION><ECCENTRICITY>.00061215</ECCENTRICITY><INCLINATION>51.8676</INCLINATION><RA_OF_ASC_NODE>342.1611</RA_OF_ASC_NODE><ARG_OF_PERICENTER>335.2082</ARG_OF_PERICENTER><MEAN_ANOMALY>98.8951</MEAN_ANOMALY></meanElements><tleParameters><EPHEMERIS_TYPE>0</EPHEMERIS_TYPE><CLASSIFICATION_TYPE>U</CLASSIFICATION_TYPE><NORAD_CAT_ID>64512</NORAD_CAT_ID><ELEMENT_SET_NO>999</ELEMENT_SET_NO><REV_AT_EPOCH>179</REV_AT_EPOCH><BSTAR>-.88305919E-4</BSTAR><MEAN_MOTION_DOT>-.9795E-4</MEAN_MOTION_DOT><MEAN_MOTION_DDOT>0</MEAN_MOTION_DDOT></tleParameters></data></segment></body></omm>

</ndm>
